start=new Date('2022-11-24T00:00:00.000Z').valueOf();
sats=[{"TLE_LINE2":"2 47780  53.0555 207.2211 0001833  55.9445 304.1718 15.06379848 96621","SEMIMAJOR_AXIS":"6925.410","EPOCH":"2022-11-23T18:35:58.981344","MEAN_MOTION":"15.06379848","MEAN_MOTION_DOT":"-0.00001531","GP_ID":"218600364","EPHEMERIS_TYPE":"0","RA_OF_ASC_NODE":"207.2211","REF_FRAME":"TEME","CLASSIFICATION_TYPE":"U","FILE":"3668355","OBJECT_TYPE":"PAYLOAD","TIME_SYSTEM":"UTC","OBJECT_NAME":"STARLINK-2213","ECCENTRICITY":"0.00018330","MEAN_ANOMALY":"304.1718","OBJECT_ID":"2021-017BL","PERIOD":"95.593","MEAN_MOTION_DDOT":"0.0000000000000","CENTER_NAME":"EARTH","DECAY_DATE":null,"REV_AT_EPOCH":"9662","ARG_OF_PERICENTER":"55.9445","INCLINATION":"53.0555","LAUNCH_DATE":"2021-03-04","COUNTRY_CODE":"US","BSTAR":"-0.00008394800000","RCS_SIZE":"LARGE","NORAD_CAT_ID":"47780","PERIAPSIS":"546.006","ELEMENT_SET_NO":"999","SITE":"AFETR","APOAPSIS":"548.545","TLE_LINE1":"1 47780U 21017BL  22327.77498821 -.00001531  00000-0 -83948-4 0  9997","MEAN_ELEMENT_THEORY":"SGP4"},{"OBJECT_TYPE":"PAYLOAD","REF_FRAME":"TEME","GP_ID":"218543151","RA_OF_ASC_NODE":"210.3479","EPHEMERIS_TYPE":"0","FILE":"3668134","CLASSIFICATION_TYPE":"U","EPOCH":"2022-11-23T01:52:47.705088","MEAN_MOTION_DOT":"0.00000743","MEAN_MOTION":"15.06398151","SEMIMAJOR_AXIS":"6925.354","TLE_LINE2":"2 47781  53.0554 210.3479 0001608  61.8305 298.2847 15.06398151 96470","REV_AT_EPOCH":"9647","DECAY_DATE":null,"CENTER_NAME":"EARTH","MEAN_MOTION_DDOT":"0.0000000000000","PERIOD":"95.592","ECCENTRICITY":"0.00016080","MEAN_ANOMALY":"298.2847","TIME_SYSTEM":"UTC","OBJECT_NAME":"STARLINK-2223","OBJECT_ID":"2021-017BM","NORAD_CAT_ID":"47781","RCS_SIZE":"LARGE","COUNTRY_CODE":"US","BSTAR":"0.00006880600000","INCLINATION":"53.0554","ARG_OF_PERICENTER":"61.8305","LAUNCH_DATE":"2021-03-04","SITE":"AFETR","TLE_LINE1":"1 47781U 21017BM  22327.07832992  .00000743  00000-0  68806-4 0  9990","APOAPSIS":"548.333","MEAN_ELEMENT_THEORY":"SGP4","PERIAPSIS":"546.106","ELEMENT_SET_NO":"999"},{"RCS_SIZE":"LARGE","NORAD_CAT_ID":"47787","LAUNCH_DATE":"2021-03-11","ARG_OF_PERICENTER":"68.5150","INCLINATION":"53.0550","BSTAR":"0.00007481900000","COUNTRY_CODE":"US","APOAPSIS":"548.273","TLE_LINE1":"1 47787U 21018A   22327.49484676  .00000833  00000-0  74819-4 0  9996","MEAN_ELEMENT_THEORY":"SGP4","SITE":"AFETR","PERIAPSIS":"546.233","ELEMENT_SET_NO":"999","CLASSIFICATION_TYPE":"U","FILE":"3668134","GP_ID":"218541922","RA_OF_ASC_NODE":"248.4812","EPHEMERIS_TYPE":"0","REF_FRAME":"TEME","OBJECT_TYPE":"PAYLOAD","TLE_LINE2":"2 47787  53.0550 248.4812 0001473  68.5150 291.5996 15.06387096 95394","SEMIMAJOR_AXIS":"6925.388","MEAN_MOTION_DOT":"0.00000833","MEAN_MOTION":"15.06387096","EPOCH":"2022-11-23T11:52:34.760064","MEAN_MOTION_DDOT":"0.0000000000000","CENTER_NAME":"EARTH","DECAY_DATE":null,"REV_AT_EPOCH":"9539","OBJECT_ID":"2021-018A","TIME_SYSTEM":"UTC","OBJECT_NAME":"STARLINK-2257","ECCENTRICITY":"0.00014730","MEAN_ANOMALY":"291.5996","PERIOD":"95.593"},{"OBJECT_TYPE":"PAYLOAD","CLASSIFICATION_TYPE":"U","FILE":"3668355","GP_ID":"218600121","RA_OF_ASC_NODE":"222.5470","EPHEMERIS_TYPE":"0","REF_FRAME":"TEME","MEAN_MOTION":"15.06394579","MEAN_MOTION_DOT":"-0.00000516","EPOCH":"2022-11-23T16:55:47.110368","TLE_LINE2":"2 47788  53.0548 222.5470 0002055  41.3381 318.7763 15.06394579 95799","SEMIMAJOR_AXIS":"6925.365","REV_AT_EPOCH":"9579","MEAN_MOTION_DDOT":"0.0000000000000","DECAY_DATE":null,"CENTER_NAME":"EARTH","PERIOD":"95.592","OBJECT_ID":"2021-018B","OBJECT_NAME":"STARLINK-2314","TIME_SYSTEM":"UTC","ECCENTRICITY":"0.00020550","MEAN_ANOMALY":"318.7763","RCS_SIZE":"LARGE","NORAD_CAT_ID":"47788","BSTAR":"-0.00001574600000","COUNTRY_CODE":"US","LAUNCH_DATE":"2021-03-11","ARG_OF_PERICENTER":"41.3381","INCLINATION":"53.0548","TLE_LINE1":"1 47788U 21018B   22327.70540637 -.00000516  00000-0 -15746-4 0  9995","MEAN_ELEMENT_THEORY":"SGP4","APOAPSIS":"548.653","SITE":"AFETR","PERIAPSIS":"545.807","ELEMENT_SET_NO":"999"},{"COUNTRY_CODE":"US","BSTAR":"0.00003176600000","INCLINATION":"53.0550","ARG_OF_PERICENTER":"62.4828","LAUNCH_DATE":"2021-03-11","NORAD_CAT_ID":"47789","RCS_SIZE":"LARGE","PERIAPSIS":"546.052","ELEMENT_SET_NO":"999","SITE":"AFETR","TLE_LINE1":"1 47789U 21018C   22327.42296620  .00000192  00000-0  31766-4 0  9993","APOAPSIS":"548.390","MEAN_ELEMENT_THEORY":"SGP4","EPOCH":"2022-11-23T10:09:04.279680","MEAN_MOTION_DOT":"0.00000192","MEAN_MOTION":"15.06397527","SEMIMAJOR_AXIS":"6925.356","TLE_LINE2":"2 47789  53.0550 228.8116 0001688  62.4828 297.6332 15.06397527 95670","OBJECT_TYPE":"PAYLOAD","REF_FRAME":"TEME","GP_ID":"218543423","EPHEMERIS_TYPE":"0","RA_OF_ASC_NODE":"228.8116","FILE":"3668134","CLASSIFICATION_TYPE":"U","PERIOD":"95.592","MEAN_ANOMALY":"297.6332","ECCENTRICITY":"0.00016880","TIME_SYSTEM":"UTC","OBJECT_NAME":"STARLINK-2315","OBJECT_ID":"2021-018C","REV_AT_EPOCH":"9567","DECAY_DATE":null,"CENTER_NAME":"EARTH","MEAN_MOTION_DDOT":"0.0000000000000"},{"PERIAPSIS":"546.005","ELEMENT_SET_NO":"999","SITE":"AFETR","MEAN_ELEMENT_THEORY":"SGP4","TLE_LINE1":"1 47790U 21018D   22327.79616934  .00000921  00000-0  80751-4 0  9997","APOAPSIS":"548.474","INCLINATION":"53.0548","ARG_OF_PERICENTER":"43.1344","LAUNCH_DATE":"2021-03-11","COUNTRY_CODE":"US","BSTAR":"0.00008075100000","NORAD_CAT_ID":"47790","RCS_SIZE":"LARGE","ECCENTRICITY":"0.00017830","MEAN_ANOMALY":"316.9785","TIME_SYSTEM":"UTC","OBJECT_NAME":"STARLINK-2319","OBJECT_ID":"2021-018D","PERIOD":"95.593","DECAY_DATE":null,"CENTER_NAME":"EARTH","MEAN_MOTION_DDOT":"0.0000000000000","REV_AT_EPOCH":"9587","SEMIMAJOR_AXIS":"6925.375","TLE_LINE2":"2 47790  53.0548 217.1333 0001783  43.1344 316.9785 15.06391520 95872","EPOCH":"2022-11-23T19:06:29.030976","MEAN_MOTION_DOT":"0.00000921","MEAN_MOTION":"15.06391520","REF_FRAME":"TEME","EPHEMERIS_TYPE":"0","GP_ID":"218599120","RA_OF_ASC_NODE":"217.1333","FILE":"3668355","CLASSIFICATION_TYPE":"U","OBJECT_TYPE":"PAYLOAD"},{"OBJECT_ID":"2021-018E","TIME_SYSTEM":"UTC","OBJECT_NAME":"STARLINK-2322","ECCENTRICITY":"0.00016990","MEAN_ANOMALY":"304.4239","PERIOD":"95.592","MEAN_MOTION_DDOT":"0.0000000000000","DECAY_DATE":null,"CENTER_NAME":"EARTH","REV_AT_EPOCH":"9545","TLE_LINE2":"2 47791  53.0556 247.0298 0001699  55.6910 304.4239 15.06397477 95454","SEMIMAJOR_AXIS":"6925.356","MEAN_MOTION":"15.06397477","MEAN_MOTION_DOT":"-0.00000237","EPOCH":"2022-11-23T19:34:21.032544","CLASSIFICATION_TYPE":"U","FILE":"3668355","RA_OF_ASC_NODE":"247.0298","GP_ID":"218599370","EPHEMERIS_TYPE":"0","REF_FRAME":"TEME","OBJECT_TYPE":"PAYLOAD","ELEMENT_SET_NO":"999","PERIAPSIS":"546.045","APOAPSIS":"548.398","TLE_LINE1":"1 47791U 21018E   22327.81552121 -.00000237  00000-0  29874-5 0  9999","MEAN_ELEMENT_THEORY":"SGP4","SITE":"AFETR","LAUNCH_DATE":"2021-03-11","ARG_OF_PERICENTER":"55.6910","INCLINATION":"53.0556","BSTAR":"0.00000298740000","COUNTRY_CODE":"US","RCS_SIZE":"LARGE","NORAD_CAT_ID":"47791"},{"MEAN_MOTION_DOT":"0.00000695","MEAN_MOTION":"15.06396526","EPOCH":"2022-11-23T21:28:27.574176","TLE_LINE2":"2 47792  53.0544 226.6963 0002118  45.5998 314.5164 15.06396526 95740","SEMIMAJOR_AXIS":"6925.359","OBJECT_TYPE":"PAYLOAD","CLASSIFICATION_TYPE":"U","FILE":"3668355","RA_OF_ASC_NODE":"226.6963","GP_ID":"218600622","EPHEMERIS_TYPE":"0","REF_FRAME":"TEME","PERIOD":"95.592","OBJECT_ID":"2021-018F","TIME_SYSTEM":"UTC","OBJECT_NAME":"STARLINK-2334","MEAN_ANOMALY":"314.5164","ECCENTRICITY":"0.00021180","REV_AT_EPOCH":"9574","MEAN_MOTION_DDOT":"0.0000000000000","CENTER_NAME":"EARTH","DECAY_DATE":null,"BSTAR":"0.00006556200000","COUNTRY_CODE":"US","LAUNCH_DATE":"2021-03-11","ARG_OF_PERICENTER":"45.5998","INCLINATION":"53.0544","RCS_SIZE":"LARGE","NORAD_CAT_ID":"47792","ELEMENT_SET_NO":"999","PERIAPSIS":"545.757","MEAN_ELEMENT_THEORY":"SGP4","TLE_LINE1":"1 47792U 21018F   22327.89476359  .00000695  00000-0  65562-4 0  9996","APOAPSIS":"548.691","SITE":"AFETR"},{"PERIAPSIS":"546.100","ELEMENT_SET_NO":"999","APOAPSIS":"548.369","TLE_LINE1":"1 47793U 21018G   22327.71047087  .00000373  00000-0  43965-4 0  9996","MEAN_ELEMENT_THEORY":"SGP4","SITE":"AFETR","LAUNCH_DATE":"2021-03-11","ARG_OF_PERICENTER":"55.2839","INCLINATION":"53.0540","BSTAR":"0.00004396500000","COUNTRY_CODE":"US","RCS_SIZE":"LARGE","NORAD_CAT_ID":"47793","OBJECT_ID":"2021-018G","TIME_SYSTEM":"UTC","OBJECT_NAME":"STARLINK-2338","MEAN_ANOMALY":"304.8304","ECCENTRICITY":"0.00016380","PERIOD":"95.593","MEAN_MOTION_DDOT":"0.0000000000000","CENTER_NAME":"EARTH","DECAY_DATE":null,"REV_AT_EPOCH":"9570","TLE_LINE2":"2 47793  53.0540 227.5224 0001638  55.2839 304.8304 15.06393093 95705","SEMIMAJOR_AXIS":"6925.370","MEAN_MOTION_DOT":"0.00000373","MEAN_MOTION":"15.06393093","EPOCH":"2022-11-23T17:03:04.683168","CLASSIFICATION_TYPE":"U","FILE":"3668355","GP_ID":"218600365","EPHEMERIS_TYPE":"0","RA_OF_ASC_NODE":"227.5224","REF_FRAME":"TEME","OBJECT_TYPE":"PAYLOAD"},{"PERIOD":"95.593","OBJECT_ID":"2021-018H","MEAN_ANOMALY":"307.2214","ECCENTRICITY":"0.00018620","TIME_SYSTEM":"UTC","OBJECT_NAME":"STARLINK-2341","REV_AT_EPOCH":"9571","CENTER_NAME":"EARTH","DECAY_DATE":null,"MEAN_MOTION_DDOT":"0.0000000000000","MEAN_MOTION_DOT":"0.00000865","MEAN_MOTION":"15.06389419","EPOCH":"2022-11-23T17:08:23.499168","SEMIMAJOR_AXIS":"6925.381","TLE_LINE2":"2 47794  53.0542 227.5063 0001862  52.8945 307.2214 15.06389419 95714","OBJECT_TYPE":"PAYLOAD","FILE":"3668355","CLASSIFICATION_TYPE":"U","REF_FRAME":"TEME","RA_OF_ASC_NODE":"227.5063","GP_ID":"218599621","EPHEMERIS_TYPE":"0","ELEMENT_SET_NO":"999","PERIAPSIS":"545.956","MEAN_ELEMENT_THEORY":"SGP4","TLE_LINE1":"1 47794U 21018H   22327.71416087  .00000865  00000-0  76995-4 0  9992","APOAPSIS":"548.535","SITE":"AFETR","BSTAR":"0.00007699500000","COUNTRY_CODE":"US","LAUNCH_DATE":"2021-03-11","INCLINATION":"53.0542","ARG_OF_PERICENTER":"52.8945","NORAD_CAT_ID":"47794","RCS_SIZE":"LARGE"}];
